{"type": "FeatureCollection", "features": [ {"type": "Feature", "properties": {"norad_id": 66930, "name": "STARLINK-36206", "group": "last-30-days", "lat": -23.03622112748614, "lon": -15.422715221215986, "alt_km": 351.2617367689527, "timestamp": "2025-12-22T04:03:37.889153+00:00", "meta": {"OBJECT_NAME": "STARLINK-36206", "OBJECT_ID": "2025-286F", "EPOCH": "2025-12-21T20:00:01.999008", "MEAN_MOTION": 15.74214364, "ECCENTRICITY": 9.91e-05, "INCLINATION": 53.1583, "RA_OF_ASC_NODE": 4.8359, "ARG_OF_PERICENTER": 108.5024, "MEAN_ANOMALY": 118.113, "EPHEMERIS_TYPE": 0, "CLASSIFICATION_TYPE": "U", "NORAD_CAT_ID": 66930, "ELEMENT_SET_NO": 999, "REV_AT_EPOCH": 345, "BSTAR": -0.0020177, "MEAN_MOTION_DOT": -0.00286612, "MEAN_MOTION_DDOT": 0}, "tle": {"line1": "1 66930U 25286F   25355.83335647 -.00286612  00000+0 -20177-2 0  9991", "line2": "2 66930  53.1583   4.8359 0000991 108.5024 118.1130 15.74214364  3453"}}, "geometry": {"type": "Point", "coordinates": [-15.422715221215986, -23.03622112748614]}}, {"type": "Feature", "properties": {"norad_id": 66931, "name": "STARLINK-36130", "group": "last-30-days", "lat": -21.544642898560657, "lon": -14.054060586447463, "alt_km": 351.0887610526788, "timestamp": "2025-12-22T04:03:37.889163+00:00", "meta": {"OBJECT_NAME": "STARLINK-36130", "OBJECT_ID": "2025-286G", "EPOCH": "2025-12-21T20:00:01.999008", "MEAN_MOTION": 15.74329125, "ECCENTRICITY": 9.87e-05, "INCLINATION": 53.1581, "RA_OF_ASC_NODE": 4.8319, "ARG_OF_PERICENTER": 103.6542, "MEAN_ANOMALY": 124.8557, "EPHEMERIS_TYPE": 0, "CLASSIFICATION_TYPE": "U", "NORAD_CAT_ID": 66931, "ELEMENT_SET_NO": 999, "REV_AT_EPOCH": 345, "BSTAR": -0.0032201, "MEAN_MOTION_DOT": -0.00450605, "MEAN_MOTION_DDOT": 0}, "tle": {"line1": "1 66931U 25286G   25355.83335647 -.00450605  00000+0 -32201-2 0  9998", "line2": "2 66931  53.1581   4.8319 0000987 103.6542 124.8557 15.74329125  3453"}}, "geometry": {"type": "Point", "coordinates": [-14.054060586447463, -21.544642898560657]}}, {"type": "Feature", "properties": {"norad_id": 66932, "name": "STARLINK-36177", "group": "last-30-days", "lat": -20.071052803571153, "lon": -12.73869833350585, "alt_km": 351.00585850852895, "timestamp": "2025-12-22T04:03:37.889173+00:00", "meta": {"OBJECT_NAME": "STARLINK-36177", "OBJECT_ID": "2025-286H", "EPOCH": "2025-12-21T20:00:01.999008", "MEAN_MOTION": 15.74340829, "ECCENTRICITY": 0.0001115, "INCLINATION": 53.1584, "RA_OF_ASC_NODE": 4.8278, "ARG_OF_PERICENTER": 102.9818, "MEAN_ANOMALY": 127.4488, "EPHEMERIS_TYPE": 0, "CLASSIFICATION_TYPE": "U", "NORAD_CAT_ID": 66932, "ELEMENT_SET_NO": 999, "REV_AT_EPOCH": 345, "BSTAR": -0.0033929, "MEAN_MOTION_DOT": -0.00473723, "MEAN_MOTION_DDOT": 0}, "tle": {"line1": "1 66932U 25286H   25355.83335647 -.00473723  00000+0 -33929-2 0  9993", "line2": "2 66932  53.1584   4.8278 0001115 102.9818 127.4488 15.74340829  3459"}}, "geometry": {"type": "Point", "coordinates": [-12.73869833350585, -20.071052803571153]}}, {"type": "Feature", "properties": {"norad_id": 66933, "name": "STARLINK-36157", "group": "last-30-days", "lat": -18.593916072491226, "lon": -11.453157933906384, "alt_km": 350.7255020685334, "timestamp": "2025-12-22T04:03:37.889183+00:00", "meta": {"OBJECT_NAME": "STARLINK-36157", "OBJECT_ID": "2025-286J", "EPOCH": "2025-12-21T20:00:01.999008", "MEAN_MOTION": 15.74342661, "ECCENTRICITY": 9.24e-05, "INCLINATION": 53.1585, "RA_OF_ASC_NODE": 4.8239, "ARG_OF_PERICENTER": 97.2322, "MEAN_ANOMALY": 135.1087, "EPHEMERIS_TYPE": 0, "CLASSIFICATION_TYPE": "U", "NORAD_CAT_ID": 66933, "ELEMENT_SET_NO": 999, "REV_AT_EPOCH": 345, "BSTAR": -0.003369, "MEAN_MOTION_DOT": -0.00470589, "MEAN_MOTION_DDOT": 0}, "tle": {"line1": "1 66933U 25286J   25355.83335647 -.00470589  00000+0 -33690-2 0  9996", "line2": "2 66933  53.1585   4.8239 0000924  97.2322 135.1087 15.74342661  3458"}}, "geometry": {"type": "Point", "coordinates": [-11.453157933906384, -18.593916072491226]}}, {"type": "Feature", "properties": {"norad_id": 66934, "name": "STARLINK-36153", "group": "last-30-days", "lat": -17.098884207295953, "lon": -10.182468268723259, "alt_km": 350.5329768490219, "timestamp": "2025-12-22T04:03:37.889192+00:00", "meta": {"OBJECT_NAME": "STARLINK-36153", "OBJECT_ID": "2025-286K", "EPOCH": "2025-12-21T20:00:01.999008", "MEAN_MOTION": 15.74369748, "ECCENTRICITY": 6.82e-05, "INCLINATION": 53.1584, "RA_OF_ASC_NODE": 4.8197, "ARG_OF_PERICENTER": 101.8691, "MEAN_ANOMALY": 132.3827, "EPHEMERIS_TYPE": 0, "CLASSIFICATION_TYPE": "U", "NORAD_CAT_ID": 66934, "ELEMENT_SET_NO": 999, "REV_AT_EPOCH": 345, "BSTAR": -0.0036959, "MEAN_MOTION_DOT": -0.00514132, "MEAN_MOTION_DDOT": 0}, "tle": {"line1": "1 66934U 25286K   25355.83335647 -.00514132  00000+0 -36959-2 0  9991", "line2": "2 66934  53.1584   4.8197 0000682 101.8691 132.3827 15.74369748  3459"}}, "geometry": {"type": "Point", "coordinates": [-10.182468268723259, -17.098884207295953]}}, {"type": "Feature", "properties": {"norad_id": 66935, "name": "STARLINK-36127", "group": "last-30-days", "lat": -15.615451407885628, "lon": -8.947838985729248, "alt_km": 350.45186608095355, "timestamp": "2025-12-22T04:03:37.889202+00:00", "meta": {"OBJECT_NAME": "STARLINK-36127", "OBJECT_ID": "2025-286L", "EPOCH": "2025-12-21T20:00:01.999008", "MEAN_MOTION": 15.74330732, "ECCENTRICITY": 0.0001027, "INCLINATION": 53.1583, "RA_OF_ASC_NODE": 4.8158, "ARG_OF_PERICENTER": 99.3521, "MEAN_ANOMALY": 136.8239, "EPHEMERIS_TYPE": 0, "CLASSIFICATION_TYPE": "U", "NORAD_CAT_ID": 66935, "ELEMENT_SET_NO": 999, "REV_AT_EPOCH": 345, "BSTAR": -0.0032201, "MEAN_MOTION_DOT": -0.00450636, "MEAN_MOTION_DDOT": 0}, "tle": {"line1": "1 66935U 25286L   25355.83335647 -.00450636  00000+0 -32201-2 0  9996", "line2": "2 66935  53.1583   4.8158 0001027  99.3521 136.8239 15.74330732  3450"}}, "geometry": {"type": "Point", "coordinates": [-8.947838985729248, -15.615451407885628]}}, {"type": "Feature", "properties": {"norad_id": 66936, "name": "STARLINK-36160", "group": "last-30-days", "lat": -14.108492694794046, "lon": -7.717196794224761, "alt_km": 350.32917023242953, "timestamp": "2025-12-22T04:03:37.889213+00:00", "meta": {"OBJECT_NAME": "STARLINK-36160", "OBJECT_ID": "2025-286M", "EPOCH": "2025-12-21T20:00:01.999008", "MEAN_MOTION": 15.74341435, "ECCENTRICITY": 0.0001006, "INCLINATION": 53.1583, "RA_OF_ASC_NODE": 4.8122, "ARG_OF_PERICENTER": 103.6123, "MEAN_ANOMALY": 134.4821, "EPHEMERIS_TYPE": 0, "CLASSIFICATION_TYPE": "U", "NORAD_CAT_ID": 66936, "ELEMENT_SET_NO": 999, "REV_AT_EPOCH": 345, "BSTAR": -0.0033697, "MEAN_MOTION_DOT": -0.00470654, "MEAN_MOTION_DDOT": 0}, "tle": {"line1": "1 66936U 25286M   25355.83335647 -.00470654  00000+0 -33697-2 0  9999", "line2": "2 66936  53.1583   4.8122 0001006 103.6123 134.4821 15.74341435  3459"}}, "geometry": {"type": "Point", "coordinates": [-7.717196794224761, -14.108492694794046]}}, {"type": "Feature", "properties": {"norad_id": 66937, "name": "STARLINK-36165", "group": "last-30-days", "lat": -12.596052296797765, "lon": -6.5044933610967295, "alt_km": 350.0337140091506, "timestamp": "2025-12-22T04:03:37.889225+00:00", "meta": {"OBJECT_NAME": "STARLINK-36165", "OBJECT_ID": "2025-286N", "EPOCH": "2025-12-21T20:00:01.999008", "MEAN_MOTION": 15.74355439, "ECCENTRICITY": 8.06e-05, "INCLINATION": 53.1583, "RA_OF_ASC_NODE": 4.8075, "ARG_OF_PERICENTER": 97.2078, "MEAN_ANOMALY": 142.795, "EPHEMERIS_TYPE": 0, "CLASSIFICATION_TYPE": "U", "NORAD_CAT_ID": 66937, "ELEMENT_SET_NO": 999, "REV_AT_EPOCH": 345, "BSTAR": -0.0034523, "MEAN_MOTION_DOT": -0.0048182, "MEAN_MOTION_DDOT": 0}, "tle": {"line1": "1 66937U 25286N   25355.83335647 -.00481820  00000+0 -34523-2 0  9996", "line2": "2 66937  53.1583   4.8075 0000806  97.2078 142.7950 15.74355439  3455"}}, "geometry": {"type": "Point", "coordinates": [-6.5044933610967295, -12.596052296797765]}}, {"type": "Feature", "properties": {"norad_id": 66938, "name": "STARLINK-36155", "group": "last-30-days", "lat": -11.07328416152418, "lon": -5.30173013586544, "alt_km": 349.9424188364046, "timestamp": "2025-12-22T04:03:37.889238+00:00", "meta": {"OBJECT_NAME": "STARLINK-36155", "OBJECT_ID": "2025-286P", "EPOCH": "2025-12-21T20:00:01.999008", "MEAN_MOTION": 15.74365099, "ECCENTRICITY": 7.18e-05, "INCLINATION": 53.158, "RA_OF_ASC_NODE": 4.8034, "ARG_OF_PERICENTER": 109.363, "MEAN_ANOMALY": 132.5654, "EPHEMERIS_TYPE": 0, "CLASSIFICATION_TYPE": "U", "NORAD_CAT_ID": 66938, "ELEMENT_SET_NO": 999, "REV_AT_EPOCH": 345, "BSTAR": -0.0036389, "MEAN_MOTION_DOT": -0.00506563, "MEAN_MOTION_DDOT": 0}, "tle": {"line1": "1 66938U 25286P   25355.83335647 -.00506563  00000+0 -36389-2 0  9991", "line2": "2 66938  53.1580   4.8034 0000718 109.3630 132.5654 15.74365099  3450"}}, "geometry": {"type": "Point", "coordinates": [-5.30173013586544, -11.07328416152418]}}, {"type": "Feature", "properties": {"norad_id": 66939, "name": "STARLINK-36154", "group": "last-30-days", "lat": -8.028004396409065, "lon": -2.9421582475300556, "alt_km": 349.4703075496409, "timestamp": "2025-12-22T04:03:37.889262+00:00", "meta": {"OBJECT_NAME": "STARLINK-36154", "OBJECT_ID": "2025-286Q", "EPOCH": "2025-12-21T20:00:01.999008", "MEAN_MOTION": 15.74382963, "ECCENTRICITY": 8.66e-05, "INCLINATION": 53.1581, "RA_OF_ASC_NODE": 4.7953, "ARG_OF_PERICENTER": 90.4972, "MEAN_ANOMALY": 155.2621, "EPHEMERIS_TYPE": 0, "CLASSIFICATION_TYPE": "U", "NORAD_CAT_ID": 66939, "ELEMENT_SET_NO": 999, "REV_AT_EPOCH": 345, "BSTAR": -0.0038309, "MEAN_MOTION_DOT": -0.00532101, "MEAN_MOTION_DDOT": 0}, "tle": {"line1": "1 66939U 25286Q   25355.83335647 -.00532101  00000+0 -38309-2 0  9993", "line2": "2 66939  53.1581   4.7953 0000866  90.4972 155.2621 15.74382963  3459"}}, "geometry": {"type": "Point", "coordinates": [-2.9421582475300556, -8.028004396409065]}}]}